KAITUO 1B               
1 40912U 15049P   17352.07181571  .00001638  00000-0  83033-4 0  9992
2 40912  97.4510 357.0268 0013783 284.5827 154.4322 15.18296441124181
TIANWANG 1C (TW-1C)     
1 40926U 15051B   17352.09304884  .00007729  00000-0  15898-3 0  9996
2 40926  97.2082  30.4019 0009408 212.4461 230.6733 15.46192859125304
TIANWANG 1B (TW-1B)     
1 40927U 15051C   17352.16170350  .00007369  00000-0  15782-3 0  9996
2 40927  97.2178  30.4012 0008955 223.9643 182.9524 15.45029484125241
TIANWANG 1A (TW-1A)     
1 40928U 15051D   17352.15553881  .00002677  00000-0  74606-4 0  9998
2 40928  97.2077  24.6275 0010407 252.7682 179.4416 15.37609219124953
LAPAN-A2 (IO-86)        
1 40931U 15052B   17351.36220112  .00000717  00000-0  10788-4 0  9997
2 40931   6.0010   6.6216 0013946 317.1249  42.7696 14.76559061120086
LQSAT                   
1 40958U 15057A   17352.06744167  .00000010  00000-0  93777-5 0  9996
2 40958  97.9619  64.0075 0017666 193.0296 167.0460 14.73006850118184
CHUBUSAT-2              
1 41338U 16012B   17352.17189664  .00000416  00000-0  25897-4 0  9995
2 41338  31.0047  23.6388 0013876  80.8256 279.3948 14.99890016100639
CHUBUSAT-3              
1 41339U 16012C   17352.14209941  .00000348  00000-0  20472-4 0  9992
2 41339  31.0100  22.6879 0013513  87.2167 273.0026 15.00083542100611
OUFTI-1                 
1 41458U 16025C   17352.18626672  .00001709  00000-0  93209-4 0  9996
2 41458  98.1635  40.1890 0172780  34.8657 326.3750 15.04063699 90228
E-ST@R-II               
1 41459U 16025D   17352.09709347  .00001167  00000-0  65493-4 0  9990
2 41459  98.1628  39.9992 0173316  35.3522 325.9075 15.03828196 90206
AAUSAT 4                
1 41460U 16025E   17352.16783084  .00001413  00000-0  77857-4 0  9991
2 41460  98.1565  40.3269 0164988  32.4983 328.6284 15.05036672 90254
NUSAT 1 (LO-87)         
1 41557U 16033B   17352.17037700  .00001777  00000-0  67960-4 0  9992
2 41557  97.4510  71.6411 0015567  79.3907 280.9084 15.27831664 86513
BEESAT-4                
1 41619U 16040W   17352.12032338  .00001920  00000-0  88123-4 0  9990
2 41619  97.4406  52.5860 0012875 139.4640 220.7557 15.21572750 70559
PRATHAM                 
1 41783U 16059A   17351.74625159  .00000098  00000-0  28550-4 0  9991
2 41783  98.1445  50.9915 0032525 306.4029  53.4174 14.62887931 65437
ALSAT 1N                
1 41789U 16059G   17352.06072424  .00000089  00000-0  26212-4 0  9997
2 41789  98.1451  52.1628 0027250 299.0558  60.7916 14.64110938 65510
NAYIF-1 (EO-88)         
1 42017U 17008BX  17352.15765687  .00002042  00000-0  87654-4 0  9995
2 42017  97.4733  53.1168 0005122 303.8916  56.1834 15.23849402 46491
LILACSAT-1              
1 42725U 98067ME  17352.05725962  .00020092  00000-0  23276-3 0  9990
2 42725  51.6363 196.3621 0004572 259.6393 100.4085 15.61801876 32140
MAX VALIER SAT          
1 42778U 17036P   17352.14407939  .00001319  00000-0  62670-4 0  9999
2 42778  97.4296  49.6458 0012317 351.0550   9.0464 15.20913957 26986
FOX-1B (AO-91)          
1 43017U 17073E   17351.56623916  .00000576  00000-0  50437-4 0  9999
2 43017  97.6941 285.4441 0261530 142.5474 219.4286 14.77801321  4285
